GLOBALSTAR M019         
1 25677U 99019B   25029.62033302  .00000026  00000+0  12086-2 0  9998
2 25677  51.9873 100.8276 0001240  75.4535  72.0356 12.13869520168311
GLOBALSTAR M044         
1 25678U 99019C   25029.38429767 -.00000112  00000+0 -39127-3 0  9990
2 25678  51.9986  35.4792 0006653 133.5450  11.7080 11.90248220154791
GLOBALSTAR M042         
1 25679U 99019D   25029.61649034 -.00000064  00000+0  26654-3 0  9994
2 25679  52.0016  82.1416 0002586  23.3555 139.1240 12.22077351168310
GLOBALSTAR M025         
1 25770U 99031A   25029.56126243 -.00000066  00000+0  53648-4 0  9992
2 25770  51.9812 120.4081 0000946 236.3324 136.7759 11.22558652466143
GLOBALSTAR M049         
1 25771U 99031B   25029.57138917  .00000004  00000+0  24029-2 0  9995
2 25771  51.9859 148.1807 0004415 134.2893 225.8266 11.12112988102002
GLOBALSTAR M047         
1 25772U 99031C   25029.59458316 -.00000096  00000+0 -73060-3 0  9999
2 25772  51.9818 158.3400 0016383  28.9188 331.2522 11.31925626455418
GLOBALSTAR M052         
1 25773U 99031D   25029.63072104  .00000003  00000+0  23075-2 0  9998
2 25773  51.9844 258.6756 0001915 329.0035  64.4596 11.15057346463059
